STARLINK-37031          
1 68172U 26050F   26078.56904187 -.00746879  19250-3 -15788-2 0  9994
2 68172  53.1620 232.5378 0000458 346.3779  13.7239 15.98076782  2032
STARLINK-37076          
1 68173U 26050G   26078.50625542 -.00864982  25162-3 -17873-2 0  9996
2 68173  53.1615 232.8571 0000645 359.7564   0.3466 15.98507778  2020
STARLINK-37078          
1 68174U 26050H   26078.56858123 -.00805867  22125-3 -16768-2 0  9991
2 68174  53.1617 232.5342 0000261  74.2706 285.8353 15.98372202  2035
STARLINK-36886          
1 68175U 26050J   26078.56836353 -.00726912  18427-3 -14987-2 0  9997
2 68175  53.1618 232.5329 0000812 328.5582  31.5400 15.98517353  2038
STARLINK-36905          
1 68176U 26050K   26078.56812124 -.00710734  17733-3 -14521-2 0  9996
2 68176  53.1619 232.5315 0000718 321.9812  38.1167 15.98675796  2032
STARLINK-36668          
1 68177U 26050L   26078.56786617 -.00720821  18212-3 -14604-2 0  9997
2 68177  53.1621 232.5297 0000696 333.7333  26.3662 15.98826248  2038
STARLINK-36677          
1 68178U 26050M   26078.56764237 -.00929161  28745-3 -18795-2 0  9997
2 68178  53.1619 232.5274 0000919  18.8959 341.2106 15.98898420  2037
STARLINK-37052          
1 68179U 26050N   26078.56738279 -.00666179  15892-3 -13225-2 0  9994
2 68179  53.1613 232.5262 0000847 251.3193 108.7745 15.99173693  2037
STARLINK-37035          
1 68180U 26050P   26078.56718619 -.00690810  16965-3 -13647-2 0  9991
2 68180  53.1621 232.5248 0000593 324.9508  35.1483 15.99266404  2032
STARLINK-37032          
1 68181U 26050Q   26078.56692649 -.00700217  17407-3 -13712-2 0  9994
2 68181  53.1621 232.5236 0000799 332.8854  27.2135 15.99422141  2038
STARLINK-37082          
1 68182U 26050R   26078.56668515 -.00691167  17038-3 -13413-2 0  9991
2 68182  53.1619 232.5220 0000964 324.6980  35.3987 15.99579072  2033
STARLINK-37102          
1 68183U 26050S   26078.56647828 -.00683018  16706-3 -13158-2 0  9999
2 68183  53.1620 232.5205 0000831 338.3120  21.7875 15.99705953  2034
STARLINK-36964          
1 68184U 26050T   26078.56625431 -.00664681  15944-3 -12697-2 0  9991
2 68184  53.1619 232.5189 0000643 330.0119  30.0875 15.99849090  2036
STARLINK-37061          
1 68185U 26050U   26078.56605935 -.00873020  25966-3 -16679-2 0  9997
2 68185  53.1616 232.5178 0000687  57.4494 302.6603 15.99892771  2037
STARLINK-37079          
1 68186U 26050V   26078.56582144 -.00680419  16664-3 -12815-2 0  9995
2 68186  53.1620 232.5158 0001058 326.7573  33.3392 16.00099925  2030
STARLINK-37006          
1 68187U 26050W   26078.56557438 -.00682857  16797-3 -12753-2 0  9990
2 68187  53.1620 232.5147 0000720 325.8020  34.2964 16.00247413  2033
STARLINK-36340          
1 68188U 26050X   26078.56537335 -.00691967  17220-3 -12834-2 0  9999
2 68188  53.1619 232.5131 0000884 330.3319  29.7662 16.00370058  1932
STARLINK-36305          
1 68189U 26050Y   26078.56515448 -.00680572  16745-3 -12521-2 0  9995
2 68189  53.1619 232.5118 0000664 330.0991  30.0002 16.00507461  1930
STARLINK-37071          
1 68190U 26050Z   26078.56469545 -.00685813  17028-3 -12410-2 0  9998
2 68190  53.1620 232.5085 0000787 120.8561 239.2548 16.00795573  2034
STARLINK-37091          
1 68191U 26050AA  26078.56446108 -.00661998  16019-3 -11877-2 0  9992
2 68191  53.1618 232.5067 0000718 334.0180  26.0815 16.00938134  2033
STARLINK-37098          
1 68192U 26050AB  26078.56422956 -.00678632  16763-3 -12086-2 0  9990
2 68192  53.1618 232.5054 0000647 327.3796  32.7195 16.01069674  2039
STARLINK-37090          
1 68193U 26050AC  26078.56374858 -.00651387  15641-3 -11396-2 0  9993
2 68193  53.1621 232.5012 0000711 333.6069  26.4927 16.01369308  2033
STARLINK-37093          
1 68194U 26050AD  26078.56490579 -.00668674  16258-3 -12185-2 0  9992
2 68194  53.1623 232.5098 0001079 125.0257 235.0876 16.00670231  2030
STARLINK-37058          
1 68195U 26050AE  26078.31433581 -.00749084  20203-3 -12605-2 0  9993
2 68195  53.1616 233.7917 0002524 340.0442  20.0490 16.02049525   431
